OBJECT_NAME,OBJECT_ID,EPOCH,MEAN_MOTION,ECCENTRICITY,INCLINATION,RA_OF_ASC_NODE,ARG_OF_PERICENTER,MEAN_ANOMALY,EPHEMERIS_TYPE,CLASSIFICATION_TYPE,NORAD_CAT_ID,ELEMENT_SET_NO,REV_AT_EPOCH,BSTAR,MEAN_MOTION_DOT,MEAN_MOTION_DDOT
DUCHIFAT-1,2014-033M,2026-05-18T22:20:20.729472,15.58987510,.00061861,98.0491,194.1195,171.7607,188.3750,0,U,40021,999,65118,.75037675E-3,.58593E-3,0
NANOSATC-BR1,2014-033Q,2026-05-18T01:46:29.577216,15.30427931,.00016536,98.0738,167.8159,293.1752,66.9312,0,U,40024,999,64937,.38005443E-3,.11102E-3,0
QB50P1,2014-033R,2026-05-18T22:46:22.818144,15.17763555,.00077402,98.0973,148.0560,337.2109,22.8778,0,U,40025,999,64859,.26585812E-3,.5296E-4,0
DTUSAT-2,2014-033W,2026-05-18T17:03:29.829024,15.14596485,.0007292,98.0867,134.5776,349.5054,10.6023,0,U,40030,999,64822,.23556408E-3,.4276E-4,0
QB50P2,2014-033Y,2026-05-18T16:59:12.303456,15.14744084,.00056445,98.0753,133.7642,277.6790,82.3799,0,U,40032,999,64820,.22121616E-3,.4027E-4,0
PERSEUS-M1,2014-033AF,2026-05-18T07:55:43.069440,14.95523176,.00127239,97.9635,81.9777,42.8372,317.3837,0,U,40039,999,64617,.13186014E-3,.1402E-4,0
POLYITAN-1,2014-033AJ,2026-05-18T19:17:58.762176,15.32154281,.00056968,98.0962,162.3101,240.0236,120.0439,0,U,40042,999,64909,.38316913E-3,.11817E-3,0
TIGRISAT,2014-033AK,2026-05-18T09:39:30.507552,14.85021879,.00497258,97.7798,289.1062,170.8027,189.4111,0,U,40043,999,64120,.1639485E-3,.1375E-4,0
CANX-4,2014-034C,2026-05-18T05:25:59.200896,14.81203571,.00140768,98.3160,12.4349,105.7344,254.5421,0,U,40055,999,64009,.79923508E-4,.566E-5,0
CANX-5,2014-034D,2026-05-18T02:09:40.601664,14.81220629,.00140709,98.3163,12.3353,106.3261,253.9499,0,U,40056,999,63088,.8217185E-4,.583E-5,0
GONETS-M 10,2014-036C,2026-05-18T22:21:48.671712,12.42944760,.0021414,82.5098,325.8517,203.8602,156.1487,0,U,40063,999,53861,.17569095E-4,.12E-6,0
METEOR-M 2,2014-037A,2026-05-18T22:24:26.259264,14.21451477,.00068067,98.5099,115.7113,115.5513,244.6370,0,U,40069,999,61516,-.10898394E-3,-.28E-5,0
DX1,2014-037C,2026-05-18T22:42:47.037600,14.89881870,.00076482,98.3854,98.8799,18.5894,341.5600,0,U,40071,999,64175,.58766029E-4,.502E-5,0
UKUBE-1,2014-037F,2026-05-18T22:36:58.591584,15.13034237,.00003981,98.4241,139.1552,132.8085,227.3177,0,U,40074,999,64413,.3257758E-3,.5679E-4,0
GAOFEN-2,2014-049A,2026-05-18T23:41:00.284640,14.80862473,.00067196,98.0124,203.2193,339.2774,20.8165,0,U,40118,999,63491,-.22462587E-4,-.227E-5,0
BRITE-PL2 (HEWELIUSZ),2014-049B,2026-05-18T07:28:58.372608,14.94468289,.00135758,97.9065,250.0897,203.4228,156.6375,0,U,40119,999,63698,.12593857E-3,.1301E-4,0
CBERS 4,2014-079A,2026-05-18T23:18:50.013216,14.35499510,.00021088,98.3549,196.7162,98.1049,262.0376,0,U,40336,999,59976,-.16305695E-4,-.89E-6,0
SMAP,2015-003A,2026-05-18T22:50:03.123456,14.63410324,.00012276,98.1283,146.4602,70.7266,289.4069,0,U,40376,999,60334,.5449391E-4,.235E-5,0
GONETS-M 11,2015-020A,2026-05-18T22:46:09.552288,12.42875374,.0017404,82.4890,49.2086,66.1378,294.1523,0,U,40552,999,50510,-.51706124E-3,-.62E-6,0
GONETS-M 12,2015-020B,2026-05-18T22:08:27.913920,12.42889617,.00163586,82.4924,50.3410,51.9791,308.2763,0,U,40553,999,50509,-.62780597E-3,-.77E-6,0
GONETS-M 13,2015-020C,2026-05-18T23:25:29.023104,12.42868350,.00148278,82.4887,48.9313,37.9681,322.2442,0,U,40554,999,50507,-.82527171E-3,-.104E-5,0
DMC3-FM1,2015-032A,2026-05-18T21:48:21.915072,14.85700996,.00063741,97.6497,5.2269,137.4257,222.7454,0,U,40715,999,58556,.45119193E-4,.34E-5,0
DMC3-FM2,2015-032B,2026-05-18T22:20:15.973152,14.85708794,.00067893,97.6553,6.8020,142.5394,217.6296,0,U,40716,999,58556,.1091917E-3,.896E-5,0
DMC3-FM3,2015-032C,2026-05-18T21:16:35.150016,14.85696918,.00059089,97.6606,8.4938,140.4511,219.7137,0,U,40717,999,58556,.21050782E-4,.131E-5,0
CARBONITE 1 (CBNT-1),2015-032D,2026-05-18T21:50:38.330304,14.83487807,.00153783,97.6493,318.2069,35.7905,324.4337,0,U,40718,999,58500,.14244879E-3,.1123E-4,0
LILACSAT-2,2015-049K,2026-05-18T21:58:31.837728,15.50399043,.00069562,97.4675,174.6627,17.8089,342.3405,0,U,40908,999,59121,.20505655E-3,.11568E-3,0
