DUCHIFAT-1              
1 40021U 14033M   26138.93079548  .00058593  00000+0  75038-3 0  9998
2 40021  98.0491 194.1195 0006186 171.7607 188.3750 15.58987510651182
NANOSATC-BR1            
1 40024U 14033Q   26138.07395344  .00011102  00000+0  38005-3 0  9999
2 40024  98.0738 167.8159 0001653 293.1752  66.9312 15.30427931649379
QB50P1                  
1 40025U 14033R   26138.94887521  .00005296  00000+0  26586-3 0  9997
2 40025  98.0973 148.0560 0007740 337.2109  22.8778 15.17763555648597
DTUSAT-2                
1 40030U 14033W   26138.71076191  .00004276  00000+0  23556-3 0  9992
2 40030  98.0867 134.5776 0007292 349.5054  10.6023 15.14596485648222
QB50P2                  
1 40032U 14033Y   26138.70778129  .00004027  00000+0  22122-3 0  9995
2 40032  98.0753 133.7642 0005644 277.6790  82.3799 15.14744084648202
PERSEUS-M1              
1 40039U 14033AF  26138.33035960  .00001402  00000+0  13186-3 0  9994
2 40039  97.9635  81.9777 0012723  42.8372 317.3837 14.95523176646176
POLYITAN-1              
1 40042U 14033AJ  26138.80415234  .00011817  00000+0  38317-3 0  9990
2 40042  98.0962 162.3101 0005696 240.0236 120.0439 15.32154281649092
TIGRISAT                
1 40043U 14033AK  26138.40243643  .00001375  00000+0  16395-3 0  9990
2 40043  97.7798 289.1062 0049725 170.8027 189.4111 14.85021879641203
CANX-4                  
1 40055U 14034C   26138.22637964  .00000566  00000+0  79924-4 0  9996
2 40055  98.3160  12.4349 0014076 105.7344 254.5421 14.81203571640092
CANX-5                  
1 40056U 14034D   26138.09005326  .00000583  00000+0  82172-4 0  9991
2 40056  98.3163  12.3353 0014070 106.3261 253.9499 14.81220629630886
GONETS-M 10             
1 40063U 14036C   26138.93181333  .00000012  00000+0  17569-4 0  9992
2 40063  82.5098 325.8517 0021414 203.8602 156.1487 12.42944760538615
METEOR-M 2              
1 40069U 14037A   26138.93363726 -.00000280  00000+0 -10898-3 0  9993
2 40069  98.5099 115.7113 0006806 115.5513 244.6370 14.21451477615162
DX1                     
1 40071U 14037C   26138.94637775  .00000502  00000+0  58766-4 0  9997
2 40071  98.3854  98.8799 0007648  18.5894 341.5600 14.89881870641757
UKUBE-1                 
1 40074U 14037F   26138.94234481  .00005679  00000+0  32578-3 0  9999
2 40074  98.4241 139.1552 0000398 132.8085 227.3177 15.13034237644134
GAOFEN-2                
1 40118U 14049A   26138.98680885 -.00000227  00000+0 -22463-4 0  9997
2 40118  98.0124 203.2193 0006719 339.2774  20.8165 14.80862473634916
BRITE-PL2 (HEWELIUSZ)   
1 40119U 14049B   26138.31178672  .00001301  00000+0  12594-3 0  9996
2 40119  97.9065 250.0897 0013575 203.4228 156.6375 14.94468289636986
CBERS 4                 
1 40336U 14079A   26138.97141219 -.00000089  00000+0 -16306-4 0  9999
2 40336  98.3549 196.7162 0002108  98.1049 262.0376 14.35499510599763
SMAP                    
1 40376U 15003A   26138.95142504  .00000235  00000+0  54494-4 0  9998
2 40376  98.1283 146.4602 0001227  70.7266 289.4069 14.63410324603348
GONETS-M 11             
1 40552U 15020A   26138.94872167 -.00000062  00000+0 -51706-3 0  9999
2 40552  82.4890  49.2086 0017404  66.1378 294.1523 12.42875374505105
GONETS-M 12             
1 40553U 15020B   26138.92254530 -.00000077  00000+0 -62781-3 0  9997
2 40553  82.4924  50.3410 0016358  51.9791 308.2763 12.42889617505092
GONETS-M 13             
1 40554U 15020C   26138.97603036 -.00000104  00000+0 -82527-3 0  9993
2 40554  82.4887  48.9313 0014827  37.9681 322.2442 12.42868350505076
DMC3-FM1                
1 40715U 15032A   26138.90858698  .00000340  00000+0  45119-4 0  9991
2 40715  97.6497   5.2269 0006374 137.4257 222.7454 14.85700996585568
DMC3-FM2                
1 40716U 15032B   26138.93074043  .00000896  00000+0  10919-3 0  9994
2 40716  97.6553   6.8020 0006789 142.5394 217.6296 14.85708794585564
DMC3-FM3                
1 40717U 15032C   26138.88651794  .00000131  00000+0  21051-4 0  9995
2 40717  97.6606   8.4938 0005908 140.4511 219.7137 14.85696918585561
CARBONITE 1 (CBNT-1)    
1 40718U 15032D   26138.91016586  .00001123  00000+0  14245-3 0  9992
2 40718  97.6493 318.2069 0015378  35.7905 324.4337 14.83487807585006
LILACSAT-2              
1 40908U 15049K   26138.91564627  .00011568  00000+0  20506-3 0  9996
2 40908  97.4675 174.6627 0006956  17.8089 342.3405 15.50399043591211
